CCSDS_OEM_VERS = 2.0  
CREATION_DATE  = 2023-06-30T08:16:07
ORIGINATOR     = ESOC/OPS-GFA                            
 
 



META_START
OBJECT_NAME          = LISA                                    
OBJECT_ID            = -1000                                   
CENTER_NAME          = SUN                     
REF_FRAME            = EME2000 
TIME_SYSTEM          = TDB
START_TIME           = 2035-09-12T12:00:00.00000000            
STOP_TIME            = 2046-06-13T01:04:47.99999985            
INTERPOLATION        = HERMITE                                 
INTERPOLATION_DEGREE = 7                                       
META_STOP

2038-01-31T00:14:43.00503847   -52215030.248076   128419513.034818    54392944.152593 -28.0390269  -9.6137425  -4.0783435     0.000002098128    -0.000005160658    -0.000002185825
2038-02-03T08:36:44.93844850   -60235008.449777   125423696.159743    53122201.723996 -27.3852900 -11.0896015  -4.7034409     0.000002419650    -0.000005038648    -0.000002134073
2038-02-06T16:58:46.87185868   -68052503.487600   122006227.255729    51672872.437835 -26.6397272 -12.5276785  -5.3125144     0.000002732712    -0.000004899563    -0.000002075090
2038-02-10T01:20:48.80526871   -75641317.819520   118178745.551235    50049892.300930 -25.8049437 -13.9231057  -5.9035021     0.000003036230    -0.000004743912    -0.000002009090
2038-02-13T09:42:50.73867889   -82976051.440579   113954275.715061    48258784.086717 -24.8838523 -15.2711715  -6.4744085     0.000003329163    -0.000004572266    -0.000001936316
2038-02-16T18:21:19.66655719   -90055758.467379   109330827.688493    46298704.887276 -23.8760973 -16.5716650  -7.0251445     0.000003611449    -0.000004384587    -0.000001856752
2038-02-20T02:59:48.59443548   -96831183.788296   104337953.637271    44182183.909143 -22.7882027 -17.8155098  -7.5518660     0.000003881105    -0.000004182120    -0.000001770926
2038-02-23T11:38:17.52231378  -103279607.864381    98992712.409198    41916452.424131 -21.6239691 -18.9985187  -8.0528000     0.000004137217    -0.000003965603    -0.000001679151
2038-02-26T20:16:46.45019207  -109379451.142967    93313346.055755    39509242.727385 -20.3874550 -20.1167261  -8.5262673     0.000004378923    -0.000003735823    -0.000001581759
2038-03-02T05:12:03.55476869  -115129585.643903    87297873.422012    36959715.726661 -19.0783172 -21.1699227  -8.9721792     0.000004606176    -0.000003492748    -0.000001478738
2038-03-05T14:07:20.65934546  -120488927.529374    80986068.719715    34284729.442082 -17.7052999 -22.1505901  -9.3873524     0.000004817358    -0.000003238033    -0.000001370790
2038-03-08T23:02:37.76392207  -125439560.090423    74399542.119715    31493442.303258 -16.2731874 -23.0554704  -9.7704076     0.000005011777    -0.000002972598    -0.000001258303
2038-03-12T07:57:54.86849869  -129964987.521060    67560813.108174    28595397.677621 -14.7869561 -23.8815784 -10.1200812     0.000005188804    -0.000002697393    -0.000001141681
2038-03-15T16:59:40.34857998  -134055337.068898    60483665.900690    25596437.024773 -13.2496791 -24.6271475 -10.4356253     0.000005348077    -0.000002413015    -0.000001021176
2038-03-19T02:01:25.82866142  -137690738.627921    53201245.448357    22510605.732705 -11.6686283 -25.2885995 -10.7155257     0.000005488851    -0.000002120837    -0.000000897371
2038-03-22T11:03:11.30874270  -140859217.075552    45738406.517704    19348435.582725 -10.0492643 -25.8638091 -10.9588829     0.000005610696    -0.000001821891    -0.000000770702
2038-03-25T20:04:56.78882399  -143550406.084097    38120579.665147    16120701.962473  -8.3971624 -26.3509546 -11.1649264     0.000005713255    -0.000001517226    -0.000000641614
2038-03-29T05:23:42.26932602  -145762430.673688    30346397.780800    12826826.071577  -6.7120804 -26.7497542 -11.3335368     0.000005796492    -0.000001206817    -0.000000510097
2038-04-01T14:42:27.74982789  -147477906.455653    22468831.604127     9489251.752605  -5.0055458 -27.0571353 -11.4634146     0.000005859795    -0.000000892805    -0.000000377057
2038-04-05T00:01:13.23032976  -148691410.753191    14514780.448616     6119375.630399  -3.2834179 -27.2722023 -11.5541817     0.000005903012    -0.000000576278    -0.000000242956
2038-04-08T09:19:58.71083179  -149399240.150748     6511359.343468     2728685.372993  -1.5515894 -27.3943789 -11.6055949     0.000005926064    -0.000000258327    -0.000000108256
2038-04-11T18:03:07.43480392  -149599799.650836    -1455597.708592     -646456.213345   0.1713647 -27.4235332 -11.6176023     0.000005928993     0.000000057637     0.000000025599
2038-04-15T02:46:16.15877604  -149299843.615000    -9417692.900761    -4019438.360154   1.8922874 -27.3609522 -11.5907476     0.000005912098     0.000000372873     0.000000159141
2038-04-18T11:29:24.88274817  -148500798.336311   -17348314.678416    -7378987.710856   3.6054342 -27.2070000 -11.5251863     0.000005875501     0.000000686332     0.000000291927
2038-04-21T20:12:33.60672029  -147205752.117099   -25221000.965955   -10713894.564718   5.3051060 -26.9623440 -11.4212021     0.000005819392     0.000000996978     0.000000423517
2038-04-25T04:30:40.92710479  -145429923.448114   -32969546.882331   -13996115.096373   6.9770432 -26.6299065 -11.2800359     0.000005744459     0.000001302217     0.000000552813
2038-04-28T12:48:48.24748928  -143174152.332760   -40609297.794806   -17232150.356021   8.6245992 -26.2098954 -11.1017752     0.000005650771     0.000001602678     0.000000680080
2038-05-01T21:06:55.56787377  -140446266.307975   -48115150.693591   -20411367.337957  10.2424033 -25.7038318 -10.8870654     0.000005538692     0.000001897398     0.000000804912
2038-05-05T05:25:02.88825827  -137255628.455495   -55462481.572848   -23523336.266468  11.8251992 -25.1135119 -10.6366685     0.000005408647     0.000002185437     0.000000926910
2038-05-08T13:48:11.82314634  -133609071.718157   -62634596.869719   -26560986.494610  13.3694472 -24.4402555 -10.3511443     0.000005260949     0.000002466172     0.000001045811
2038-05-11T22:11:20.75803456  -129522050.317606   -69600239.409691   -29511079.401731  14.8684803 -23.6869652 -10.0317238     0.000005096254     0.000002738416     0.000001161110
2038-05-15T06:34:29.69292263  -125008352.999369   -76336616.178355   -32363961.770813  16.3174629 -22.8562226  -9.6795016     0.000004915145     0.000003001315     0.000001272448
2038-05-18T14:57:38.62781070  -120083142.113397   -82821715.665800   -35110311.733272  17.7117349 -21.9508512  -9.2956747     0.000004718251     0.000003254051     0.000001379477
2038-05-21T23:32:06.46475716  -114749970.374627   -89048616.493873   -37747197.853366  19.0498836 -20.9715326  -8.8805323     0.000004505731     0.000003496395     0.000001482101
2038-05-25T08:06:34.30170362  -109037790.652367   -94981415.176279   -40259415.848626  20.3242720 -19.9236034  -8.4363366     0.000004278752     0.000003726994     0.000001579746
2038-05-28T16:41:02.13865009  -102965695.725025  -100600714.613315   -42638752.196307  21.5308157 -18.8105746  -7.9645758     0.000004038076     0.000003945139     0.000001672112
2038-06-01T01:15:29.97559655   -96553929.971313  -105888164.377438   -44877437.012812  22.6656574 -17.6361567  -7.4668226     0.000003784507     0.000004150161     0.000001758916
2038-06-04T10:09:16.07819273   -89796340.449545  -110845516.359544   -46976211.253106  23.7292526 -16.3992184  -6.9425978     0.000003517797     0.000004342173     0.000001840206
2038-06-07T19:03:02.18078907   -82740476.866986  -115434699.173408   -48918955.935607  24.7135117 -15.1084507  -6.3955845     0.000003239815     0.000004519742     0.000001915376
2038-06-11T03:56:48.28338524   -75409909.343110  -119640656.965866   -50699297.544881  25.6152839 -13.7681395  -5.8275993     0.000002951471     0.000004682328     0.000001984196
2038-06-14T12:50:34.38598158   -67829086.301844  -123449603.206436   -52311400.473097  26.4316880 -12.3827208  -5.2405219     0.000002653706     0.000004829439     0.000002046458
2038-06-17T22:12:44.18671649   -59976979.182752  -126867724.406934   -53757881.387766  27.1641179 -10.9483153  -4.6327087     0.000002345670     0.000004961351     0.000002102280
2038-06-21T07:34:53.98745155   -51923649.064217  -129860240.565682   -55024020.142474  27.8051840  -9.4776776  -4.0095643     0.000002030083     0.000005076755     0.000002151106
2038-06-24T16:57:03.78818662   -43696168.509452  -132417252.057422   -56105628.290467  28.3528242  -7.9756956  -3.3731600     0.000001707969     0.000005175302     0.000002192790
2038-06-28T02:19:13.58892152   -35322170.004007  -134530304.286374   -56999129.664736  28.8052788  -6.4473526  -2.7256071     0.000001380372     0.000005256693     0.000002227205
2038-07-01T11:19:12.09655022   -26868577.446939  -136185890.513267   -57698815.639628  29.1596992  -4.9047944  -2.0720518     0.000001049864     0.000005320430     0.000002254140
2038-07-04T20:19:10.60417908   -18325738.892377  -137389205.637746   -58206885.063183  29.4172323  -3.3461883  -1.4117173     0.000000716023     0.000005366733     0.000002273689
2038-07-08T05:19:09.11180778    -9722033.129547  -138136313.929576   -58521676.275572  29.5770609  -1.7766397  -0.7467667     0.000000379911     0.000005395464     0.000002285794
2038-07-11T14:19:07.61943648    -1086032.308457  -138424772.429763   -58642160.048320  29.6386783  -0.2012863  -0.0793765     0.000000042596     0.000005406537     0.000002290417
2038-07-14T22:59:58.29101811     7519611.232099  -138255214.666264   -58568617.245497  29.6022277   1.3685185   0.5856436    -0.000000293523     0.000005399980     0.000002287572
2038-07-18T07:40:48.96259958    16100499.244595  -137630229.171881   -58302143.365417  29.4682606   2.9338715   1.2487582    -0.000000628712     0.000005375890     0.000002277300
2038-07-21T16:21:39.63418121    24628362.216176  -136551848.060815   -57843604.923966  29.2372002   4.4896896   1.9078142    -0.000000961916     0.000005334340     0.000002259632
